start=new Date('2022-03-24T00:00:00.000Z').valueOf();
sats=[{"MEAN_MOTION_DDOT":"0.0000000000000","OBJECT_NAME":"STARLINK-1154","REF_FRAME":"TEME","SEMIMAJOR_AXIS":"6925.353","PERIAPSIS":"545.982","APOAPSIS":"548.454","EPOCH":"2022-03-23T21:30:45.768384","CLASSIFICATION_TYPE":"U","BSTAR":"0.00008500500000","PERIOD":"95.592","OBJECT_ID":"2020-012W","DECAY_DATE":null,"MEAN_MOTION_DOT":"0.00000985","OBJECT_TYPE":"PAYLOAD","ELEMENT_SET_NO":"999","INCLINATION":"53.0553","CENTER_NAME":"EARTH","TLE_LINE1":"1 45198U 20012W   22082.89636306  .00000985  00000-0  85005-4 0  9991","RA_OF_ASC_NODE":"41.5180","TIME_SYSTEM":"UTC","ECCENTRICITY":"0.00017850","ARG_OF_PERICENTER":"58.5057","MEAN_MOTION":"15.06398492","FILE":"3371636","LAUNCH_DATE":"2020-02-17","NORAD_CAT_ID":"45198","MEAN_ELEMENT_THEORY":"SGP4","COUNTRY_CODE":"US","RCS_SIZE":"LARGE","EPHEMERIS_TYPE":"0","TLE_LINE2":"2 45198  53.0553  41.5180 0001785  58.5057 301.6106 15.06398492116990","GP_ID":"199535823","REV_AT_EPOCH":"11699","SITE":"AFETR","MEAN_ANOMALY":"301.6106"},{"MEAN_MOTION_DDOT":"0.0000000000000","OBJECT_NAME":"STARLINK-1197","REF_FRAME":"TEME","SEMIMAJOR_AXIS":"6925.332","PERIAPSIS":"545.964","APOAPSIS":"548.429","EPOCH":"2022-03-23T21:36:04.148928","CLASSIFICATION_TYPE":"U","BSTAR":"0.00017122000000","PERIOD":"95.592","OBJECT_ID":"2020-012X","MEAN_MOTION_DOT":"0.00002270","DECAY_DATE":null,"OBJECT_TYPE":"PAYLOAD","ELEMENT_SET_NO":"999","CENTER_NAME":"EARTH","INCLINATION":"53.0541","TLE_LINE1":"1 45199U 20012X   22082.90004802  .00002270  00000-0  17122-3 0  9997","RA_OF_ASC_NODE":"41.5001","TIME_SYSTEM":"UTC","ECCENTRICITY":"0.00017790","ARG_OF_PERICENTER":"65.8837","MEAN_MOTION":"15.06405561","FILE":"3371636","LAUNCH_DATE":"2020-02-17","NORAD_CAT_ID":"45199","MEAN_ELEMENT_THEORY":"SGP4","COUNTRY_CODE":"US","RCS_SIZE":"LARGE","TLE_LINE2":"2 45199  53.0541  41.5001 0001779  65.8837 294.2338 15.06405561117058","EPHEMERIS_TYPE":"0","GP_ID":"199535072","REV_AT_EPOCH":"11705","SITE":"AFETR","MEAN_ANOMALY":"294.2338"},{"ARG_OF_PERICENTER":"57.3594","MEAN_MOTION":"15.06396741","FILE":"3371636","COUNTRY_CODE":"US","RCS_SIZE":"LARGE","LAUNCH_DATE":"2020-02-17","NORAD_CAT_ID":"45201","MEAN_ELEMENT_THEORY":"SGP4","TLE_LINE2":"2 45201  53.0544  41.7749 0001963  57.3594 302.7584 15.06396741117043","EPHEMERIS_TYPE":"0","SITE":"AFETR","MEAN_ANOMALY":"302.7584","GP_ID":"199535322","REV_AT_EPOCH":"11704","SEMIMAJOR_AXIS":"6925.359","PERIAPSIS":"545.864","APOAPSIS":"548.583","MEAN_MOTION_DDOT":"0.0000000000000","OBJECT_NAME":"STARLINK-1199","REF_FRAME":"TEME","PERIOD":"95.592","OBJECT_ID":"2020-012Z","DECAY_DATE":null,"MEAN_MOTION_DOT":"-0.00000316","EPOCH":"2022-03-23T20:11:09.128832","CLASSIFICATION_TYPE":"U","BSTAR":"-0.00000231730000","INCLINATION":"53.0544","CENTER_NAME":"EARTH","TLE_LINE1":"1 45201U 20012Z   22082.84107788 -.00000316  00000-0 -23173-5 0  9997","OBJECT_TYPE":"PAYLOAD","ELEMENT_SET_NO":"999","TIME_SYSTEM":"UTC","ECCENTRICITY":"0.00019630","RA_OF_ASC_NODE":"41.7749"},{"ELEMENT_SET_NO":"999","OBJECT_TYPE":"PAYLOAD","TLE_LINE1":"1 45202U 20012AA  22082.65296186  .00017505  00000-0  10395-2 0  9993","INCLINATION":"52.9817","CENTER_NAME":"EARTH","RA_OF_ASC_NODE":"53.0448","ECCENTRICITY":"0.00019450","TIME_SYSTEM":"UTC","REF_FRAME":"TEME","OBJECT_NAME":"STARLINK-1203","MEAN_MOTION_DDOT":"0.0000000000000","PERIAPSIS":"530.583","APOAPSIS":"533.271","SEMIMAJOR_AXIS":"6910.062","BSTAR":"0.00103950000000","CLASSIFICATION_TYPE":"U","EPOCH":"2022-03-23T15:40:15.904704","DECAY_DATE":null,"MEAN_MOTION_DOT":"0.00017505","OBJECT_ID":"2020-012AA","PERIOD":"95.276","EPHEMERIS_TYPE":"0","TLE_LINE2":"2 45202  52.9817  53.0448 0001945  71.0304 289.0897 15.11401640116852","REV_AT_EPOCH":"11685","GP_ID":"199535573","MEAN_ANOMALY":"289.0897","SITE":"AFETR","FILE":"3371636","MEAN_MOTION":"15.11401640","ARG_OF_PERICENTER":"71.0304","MEAN_ELEMENT_THEORY":"SGP4","NORAD_CAT_ID":"45202","LAUNCH_DATE":"2020-02-17","RCS_SIZE":"LARGE","COUNTRY_CODE":"US"},{"MEAN_ANOMALY":"308.9084","SITE":"AFETR","REV_AT_EPOCH":"11611","GP_ID":"199511388","TLE_LINE2":"2 45204  53.0572  41.6607 0002022  51.2086 308.9084 15.06399337116119","EPHEMERIS_TYPE":"0","RCS_SIZE":"LARGE","COUNTRY_CODE":"US","MEAN_ELEMENT_THEORY":"SGP4","NORAD_CAT_ID":"45204","LAUNCH_DATE":"2020-02-17","FILE":"3371447","MEAN_MOTION":"15.06399337","ARG_OF_PERICENTER":"51.2086","ECCENTRICITY":"0.00020220","TIME_SYSTEM":"UTC","RA_OF_ASC_NODE":"41.6607","TLE_LINE1":"1 45204U 20012AC  22082.86687806  .00001671  00000-0  13109-3 0  9995","CENTER_NAME":"EARTH","INCLINATION":"53.0572","ELEMENT_SET_NO":"999","OBJECT_TYPE":"PAYLOAD","MEAN_MOTION_DOT":"0.00001671","DECAY_DATE":null,"OBJECT_ID":"2020-012AC","PERIOD":"95.592","BSTAR":"0.00013109000000","CLASSIFICATION_TYPE":"U","EPOCH":"2022-03-23T20:48:18.264384","APOAPSIS":"548.616","PERIAPSIS":"545.815","SEMIMAJOR_AXIS":"6925.351","REF_FRAME":"TEME","OBJECT_NAME":"STARLINK-1206","MEAN_MOTION_DDOT":"0.0000000000000"},{"TIME_SYSTEM":"UTC","ECCENTRICITY":"0.00017910","RA_OF_ASC_NODE":"41.8442","INCLINATION":"53.0557","CENTER_NAME":"EARTH","TLE_LINE1":"1 45205U 20012AD  22082.82264693 -.00000320  00000-0 -25629-5 0  9991","OBJECT_TYPE":"PAYLOAD","ELEMENT_SET_NO":"999","OBJECT_ID":"2020-012AD","PERIOD":"95.592","MEAN_MOTION_DOT":"-0.00000320","DECAY_DATE":null,"CLASSIFICATION_TYPE":"U","EPOCH":"2022-03-23T19:44:36.694752","BSTAR":"-0.00000256290000","SEMIMAJOR_AXIS":"6925.348","APOAPSIS":"548.453","PERIAPSIS":"545.973","MEAN_MOTION_DDOT":"0.0000000000000","REF_FRAME":"TEME","OBJECT_NAME":"STARLINK-1208","MEAN_ANOMALY":"302.7251","SITE":"AFETR","GP_ID":"199511378","REV_AT_EPOCH":"11611","EPHEMERIS_TYPE":"0","TLE_LINE2":"2 45205  53.0557  41.8442 0001791  57.3911 302.7251 15.06400146116117","COUNTRY_CODE":"US","RCS_SIZE":"LARGE","LAUNCH_DATE":"2020-02-17","MEAN_ELEMENT_THEORY":"SGP4","NORAD_CAT_ID":"45205","ARG_OF_PERICENTER":"57.3911","FILE":"3371447","MEAN_MOTION":"15.06400146"},{"ELEMENT_SET_NO":"999","OBJECT_TYPE":"PAYLOAD","TLE_LINE1":"1 45206U 20012AE  22082.85028371  .00001195  00000-0  99091-4 0  9998","INCLINATION":"53.0550","CENTER_NAME":"EARTH","RA_OF_ASC_NODE":"21.7365","ECCENTRICITY":"0.00016870","TIME_SYSTEM":"UTC","OBJECT_NAME":"STARLINK-1209","REF_FRAME":"TEME","MEAN_MOTION_DDOT":"0.0000000000000","PERIAPSIS":"546.035","APOAPSIS":"548.371","SEMIMAJOR_AXIS":"6925.338","BSTAR":"0.00009909100000","EPOCH":"2022-03-23T20:24:24.512544","CLASSIFICATION_TYPE":"U","DECAY_DATE":null,"MEAN_MOTION_DOT":"0.00001195","PERIOD":"95.592","OBJECT_ID":"2020-012AE","EPHEMERIS_TYPE":"0","TLE_LINE2":"2 45206  53.0550  21.7365 0001687  61.0969 299.0189 15.06403418116372","REV_AT_EPOCH":"11637","GP_ID":"199534822","SITE":"AFETR","MEAN_ANOMALY":"299.0189","MEAN_MOTION":"15.06403418","FILE":"3371636","ARG_OF_PERICENTER":"61.0969","NORAD_CAT_ID":"45206","MEAN_ELEMENT_THEORY":"SGP4","LAUNCH_DATE":"2020-02-17","RCS_SIZE":"LARGE","COUNTRY_CODE":"US"},{"TLE_LINE1":"1 45207U 20012AF  22082.31398794  .00001192  00000-0  98938-4 0  9995","CENTER_NAME":"EARTH","INCLINATION":"53.0560","ELEMENT_SET_NO":"999","OBJECT_TYPE":"PAYLOAD","ECCENTRICITY":"0.00015800","TIME_SYSTEM":"UTC","RA_OF_ASC_NODE":"44.1307","PERIAPSIS":"546.115","APOAPSIS":"548.303","SEMIMAJOR_AXIS":"6925.344","REF_FRAME":"TEME","OBJECT_NAME":"STARLINK-1210","MEAN_MOTION_DDOT":"0.0000000000000","MEAN_MOTION_DOT":"0.00001192","DECAY_DATE":null,"OBJECT_ID":"2020-012AF","PERIOD":"95.592","BSTAR":"0.00009893800000","CLASSIFICATION_TYPE":"U","EPOCH":"2022-03-23T07:32:08.558016","EPHEMERIS_TYPE":"0","TLE_LINE2":"2 45207  53.0560  44.1307 0001580  59.8053 300.3092 15.06401432116968","MEAN_ANOMALY":"300.3092","SITE":"AFETR","REV_AT_EPOCH":"11696","GP_ID":"199475273","FILE":"3371208","MEAN_MOTION":"15.06401432","ARG_OF_PERICENTER":"59.8053","RCS_SIZE":"LARGE","COUNTRY_CODE":"US","MEAN_ELEMENT_THEORY":"SGP4","NORAD_CAT_ID":"45207","LAUNCH_DATE":"2020-02-17"},{"ELEMENT_SET_NO":"999","OBJECT_TYPE":"PAYLOAD","TLE_LINE1":"1 45208U 20012AG  22082.89062855 -.00000612  00000-0 -22800-4 0  9998","INCLINATION":"53.0029","CENTER_NAME":"EARTH","RA_OF_ASC_NODE":"41.5424","ECCENTRICITY":"0.00019250","TIME_SYSTEM":"UTC","OBJECT_NAME":"STARLINK-1211","REF_FRAME":"TEME","MEAN_MOTION_DDOT":"0.0000000000000","APOAPSIS":"551.049","PERIAPSIS":"548.382","SEMIMAJOR_AXIS":"6927.850","BSTAR":"-0.00002280000000","EPOCH":"2022-03-23T21:22:30.306720","CLASSIFICATION_TYPE":"U","MEAN_MOTION_DOT":"-0.00000612","DECAY_DATE":null,"PERIOD":"95.644","OBJECT_ID":"2020-012AG","EPHEMERIS_TYPE":"0","TLE_LINE2":"2 45208  53.0029  41.5424 0001925  59.3901 300.7276 15.05584130116953","REV_AT_EPOCH":"11695","GP_ID":"199535824","SITE":"AFETR","MEAN_ANOMALY":"300.7276","MEAN_MOTION":"15.05584130","FILE":"3371636","ARG_OF_PERICENTER":"59.3901","NORAD_CAT_ID":"45208","MEAN_ELEMENT_THEORY":"SGP4","LAUNCH_DATE":"2020-02-17","RCS_SIZE":"LARGE","COUNTRY_CODE":"US"},{"APOAPSIS":"345.790","PERIAPSIS":"333.587","SEMIMAJOR_AXIS":"6717.823","REF_FRAME":"TEME","OBJECT_NAME":"STARLINK-1218","MEAN_MOTION_DDOT":"0.0000000000000","MEAN_MOTION_DOT":"0.00008725","DECAY_DATE":null,"OBJECT_ID":"2020-012AH","PERIOD":"91.328","BSTAR":"0.00005716000000","CLASSIFICATION_TYPE":"U","EPOCH":"2022-03-23T19:33:13.063392","TLE_LINE1":"1 45209U 20012AH  22082.81473453  .00008725  00000-0  57160-4 0  9999","CENTER_NAME":"EARTH","INCLINATION":"53.0483","ELEMENT_SET_NO":"999","OBJECT_TYPE":"PAYLOAD","ECCENTRICITY":"0.00090820","TIME_SYSTEM":"UTC","RA_OF_ASC_NODE":"271.9316","FILE":"3371636","MEAN_MOTION":"15.76739270","ARG_OF_PERICENTER":"286.5766","RCS_SIZE":"LARGE","COUNTRY_CODE":"US","MEAN_ELEMENT_THEORY":"SGP4","NORAD_CAT_ID":"45209","LAUNCH_DATE":"2020-02-17","TLE_LINE2":"2 45209  53.0483 271.9316 0009082 286.5766  73.4255 15.76739270118804","EPHEMERIS_TYPE":"0","MEAN_ANOMALY":"73.4255","SITE":"AFETR","REV_AT_EPOCH":"11880","GP_ID":"199535073"}];
